{
    "links": {
        "self": "http://www.neowsapp.com/rest/v1/neo/54051105?api_key=iIulBulltgU6a56xZRHN4H3l9WmuAYTsLGpBGhQ2"
    },
    "id": "54051105",
    "neo_reference_id": "54051105",
    "name": "(2020 PB5)",
    "designation": "2020 PB5",
    "nasa_jpl_url": "http://ssd.jpl.nasa.gov/sbdb.cgi?sstr=54051105",
    "absolute_magnitude_h": 23.586,
    "estimated_diameter": {
        "kilometers": {
            "estimated_diameter_min": 0.050974735,
            "estimated_diameter_max": 0.1139829726
        },
        "meters": {
            "estimated_diameter_min": 50.9747349879,
            "estimated_diameter_max": 113.9829725681
        },
        "miles": {
            "estimated_diameter_min": 0.0316742221,
            "estimated_diameter_max": 0.0708257136
        },
        "feet": {
            "estimated_diameter_min": 167.2399495379,
            "estimated_diameter_max": 373.9598957203
        }
    },
    "is_potentially_hazardous_asteroid": false,
    "close_approach_data": [
        {
            "close_approach_date": "2020-07-22",
            "close_approach_date_full": "2020-Jul-22 02:11",
            "epoch_date_close_approach": 1595383860000,
            "relative_velocity": {
                "kilometers_per_second": "15.5817278584",
                "kilometers_per_hour": "56094.2202903937",
                "miles_per_hour": "34854.7670465505"
            },
            "miss_distance": {
                "astronomical": "0.1003056885",
                "lunar": "39.0189128265",
                "kilometers": "15005517.348483495",
                "miles": "9323996.120902431"
            },
            "orbiting_body": "Earth"
        }
    ],
    "orbital_data": {
        "orbit_id": "2",
        "orbit_determination_date": "2020-08-19 07:55:03",
        "first_observation_date": "2020-08-12",
        "last_observation_date": "2020-08-17",
        "data_arc_in_days": 5,
        "observations_used": 15,
        "orbit_uncertainty": "9",
        "minimum_orbit_intersection": ".058939",
        "jupiter_tisserand_invariant": "3.225",
        "epoch_osculation": "2459076.5",
        "eccentricity": ".6730069529347403",
        "semi_major_axis": "2.311267907976056",
        "inclination": "9.166745585326488",
        "ascending_node_longitude": "146.1482679253595",
        "orbital_period": "1283.434946847865",
        "perihelion_distance": ".7557685358132387",
        "perihelion_argument": "89.24424678920529",
        "aphelion_distance": "3.866767280138873",
        "perihelion_time": "2459009.230740809424",
        "mean_anomaly": "18.86884362007167",
        "mean_motion": ".2804972709245337",
        "equinox": "J2000",
        "orbit_class": {
            "orbit_class_type": "APO",
            "orbit_class_description": "Near-Earth asteroid orbits which cross the Earth’s orbit similar to that of 1862 Apollo",
            "orbit_class_range": "a (semi-major axis) > 1.0 AU; q (perihelion) < 1.017 AU"
        }
    },
    "is_sentry_object": false
}